start=new Date('2022-11-29T00:00:00.000Z').valueOf();
sats=[{"NORAD_CAT_ID":"51128","TLE_LINE1":"1 51128U 22005AA  22332.24690007 -.00001116  00000-0 -52023-4 0  9993","REV_AT_EPOCH":"4907","PERIAPSIS":"538.355","INCLINATION":"53.2153","BSTAR":"-0.00005202300000","OBJECT_ID":"2022-005AA","SEMIMAJOR_AXIS":"6917.896","LAUNCH_DATE":"2022-01-19","EPHEMERIS_TYPE":"0","OBJECT_TYPE":"PAYLOAD","TLE_LINE2":"2 51128  53.2153 274.6651 0002032  39.9012 320.2129 15.08834980 49075","REF_FRAME":"TEME","CLASSIFICATION_TYPE":"U","ARG_OF_PERICENTER":"39.9012","FILE":"3672350","MEAN_MOTION_DOT":"-0.00001116","MEAN_ELEMENT_THEORY":"SGP4","MEAN_ANOMALY":"320.2129","RA_OF_ASC_NODE":"274.6651","APOAPSIS":"541.166","ECCENTRICITY":"0.00020320","EPOCH":"2022-11-28T05:55:32.166048","SITE":"AFETR","RCS_SIZE":"LARGE","PERIOD":"95.438","TIME_SYSTEM":"UTC","CENTER_NAME":"EARTH","MEAN_MOTION_DDOT":"0.0000000000000","GP_ID":"219003320","MEAN_MOTION":"15.08834980","ELEMENT_SET_NO":"999","DECAY_DATE":null,"OBJECT_NAME":"STARLINK-3400","COUNTRY_CODE":"US"},{"COUNTRY_CODE":"US","OBJECT_NAME":"STARLINK-3396","DECAY_DATE":null,"MEAN_MOTION":"15.08832168","ELEMENT_SET_NO":"999","MEAN_MOTION_DDOT":"0.0000000000000","GP_ID":"219003520","CENTER_NAME":"EARTH","TIME_SYSTEM":"UTC","PERIOD":"95.438","RCS_SIZE":"LARGE","EPOCH":"2022-11-28T06:34:01.219008","SITE":"AFETR","APOAPSIS":"541.812","RA_OF_ASC_NODE":"274.5364","ECCENTRICITY":"0.00029530","MEAN_MOTION_DOT":"-0.00002454","MEAN_ANOMALY":"324.6174","MEAN_ELEMENT_THEORY":"SGP4","ARG_OF_PERICENTER":"35.5014","FILE":"3672363","CLASSIFICATION_TYPE":"U","REF_FRAME":"TEME","TLE_LINE2":"2 51129  53.2166 274.5364 0002953  35.5014 324.6174 15.08832168 49092","OBJECT_TYPE":"PAYLOAD","LAUNCH_DATE":"2022-01-19","EPHEMERIS_TYPE":"0","SEMIMAJOR_AXIS":"6917.904","BSTAR":"-0.00013609000000","OBJECT_ID":"2022-005AB","REV_AT_EPOCH":"4909","PERIAPSIS":"537.726","INCLINATION":"53.2166","NORAD_CAT_ID":"51129","TLE_LINE1":"1 51129U 22005AB  22332.27362522 -.00002454  00000-0 -13609-3 0  9997"},{"COUNTRY_CODE":"US","OBJECT_NAME":"STARLINK-3395","DECAY_DATE":null,"MEAN_MOTION":"15.08834234","ELEMENT_SET_NO":"999","CENTER_NAME":"EARTH","MEAN_MOTION_DDOT":"0.0000000000000","GP_ID":"218997801","RCS_SIZE":"LARGE","PERIOD":"95.438","TIME_SYSTEM":"UTC","RA_OF_ASC_NODE":"275.2061","APOAPSIS":"541.814","ECCENTRICITY":"0.00029650","EPOCH":"2022-11-28T03:00:39.656736","SITE":"AFETR","MEAN_MOTION_DOT":"-0.00001178","MEAN_ANOMALY":"318.3579","MEAN_ELEMENT_THEORY":"SGP4","CLASSIFICATION_TYPE":"U","ARG_OF_PERICENTER":"41.7639","FILE":"3672062","TLE_LINE2":"2 51130  53.2159 275.2061 0002965  41.7639 318.3579 15.08834234 49054","REF_FRAME":"TEME","LAUNCH_DATE":"2022-01-19","EPHEMERIS_TYPE":"0","OBJECT_TYPE":"PAYLOAD","BSTAR":"-0.00005587000000","OBJECT_ID":"2022-005AC","SEMIMAJOR_AXIS":"6917.898","NORAD_CAT_ID":"51130","TLE_LINE1":"1 51130U 22005AC  22332.12545899 -.00001178  00000-0 -55870-4 0  9992","INCLINATION":"53.2159","PERIAPSIS":"537.712","REV_AT_EPOCH":"4905"},{"ELEMENT_SET_NO":"999","MEAN_MOTION":"15.08857025","DECAY_DATE":null,"OBJECT_NAME":"STARLINK-3388","COUNTRY_CODE":"US","ECCENTRICITY":"0.00030830","RA_OF_ASC_NODE":"274.6474","APOAPSIS":"541.826","SITE":"AFETR","EPOCH":"2022-11-28T06:00:49.872672","RCS_SIZE":"LARGE","TIME_SYSTEM":"UTC","PERIOD":"95.436","CENTER_NAME":"EARTH","MEAN_MOTION_DDOT":"0.0000000000000","GP_ID":"219003791","CLASSIFICATION_TYPE":"U","FILE":"3672363","ARG_OF_PERICENTER":"34.8277","MEAN_ELEMENT_THEORY":"SGP4","MEAN_ANOMALY":"325.2916","MEAN_MOTION_DOT":"-0.00004465","TLE_LINE1":"1 51131U 22005AD  22332.25057723 -.00004465  00000-0 -26240-3 0  9991","NORAD_CAT_ID":"51131","PERIAPSIS":"537.561","INCLINATION":"53.2175","REV_AT_EPOCH":"4907","OBJECT_ID":"2022-005AD","BSTAR":"-0.00026240000000","SEMIMAJOR_AXIS":"6917.828","EPHEMERIS_TYPE":"0","LAUNCH_DATE":"2022-01-19","OBJECT_TYPE":"PAYLOAD","TLE_LINE2":"2 51131  53.2175 274.6474 0003083  34.8277 325.2916 15.08857025 49074","REF_FRAME":"TEME"},{"CLASSIFICATION_TYPE":"U","ARG_OF_PERICENTER":"35.7786","FILE":"3671616","MEAN_MOTION_DOT":"-0.00000871","MEAN_ELEMENT_THEORY":"SGP4","MEAN_ANOMALY":"324.3446","LAUNCH_DATE":"2022-01-19","EPHEMERIS_TYPE":"0","OBJECT_TYPE":"PAYLOAD","REF_FRAME":"TEME","TLE_LINE2":"2 51132  53.2157 278.7962 0003601  35.7786 324.3446 15.08835171 47819","NORAD_CAT_ID":"51132","TLE_LINE1":"1 51132U 22005AE  22331.32689879 -.00000871  00000-0 -36593-4 0  9992","PERIAPSIS":"537.269","REV_AT_EPOCH":"4781","INCLINATION":"53.2157","BSTAR":"-0.00003659300000","OBJECT_ID":"2022-005AE","SEMIMAJOR_AXIS":"6917.895","OBJECT_NAME":"STARLINK-3393","COUNTRY_CODE":"US","MEAN_MOTION":"15.08835171","ELEMENT_SET_NO":"999","DECAY_DATE":null,"CENTER_NAME":"EARTH","MEAN_MOTION_DDOT":"0.0000000000000","GP_ID":"218958642","RA_OF_ASC_NODE":"278.7962","APOAPSIS":"542.251","ECCENTRICITY":"0.00036010","EPOCH":"2022-11-27T07:50:44.055456","SITE":"AFETR","RCS_SIZE":"LARGE","PERIOD":"95.438","TIME_SYSTEM":"UTC"},{"MEAN_ELEMENT_THEORY":"SGP4","MEAN_ANOMALY":"324.2412","MEAN_MOTION_DOT":"0.00005138","FILE":"3672363","ARG_OF_PERICENTER":"35.8770","CLASSIFICATION_TYPE":"U","TLE_LINE2":"2 51133  53.2171 274.6752 0002833  35.8770 324.2412 15.08817257 49075","REF_FRAME":"TEME","OBJECT_TYPE":"PAYLOAD","EPHEMERIS_TYPE":"0","LAUNCH_DATE":"2022-01-19","SEMIMAJOR_AXIS":"6917.950","OBJECT_ID":"2022-005AF","BSTAR":"0.00034088000000","PERIAPSIS":"537.855","INCLINATION":"53.2171","REV_AT_EPOCH":"4907","TLE_LINE1":"1 51133U 22005AF  22332.24322527  .00005138  00000-0  34088-3 0  9994","NORAD_CAT_ID":"51133","COUNTRY_CODE":"US","OBJECT_NAME":"STARLINK-3356","DECAY_DATE":null,"ELEMENT_SET_NO":"999","MEAN_MOTION":"15.08817257","GP_ID":"219003517","MEAN_MOTION_DDOT":"0.0000000000000","CENTER_NAME":"EARTH","TIME_SYSTEM":"UTC","PERIOD":"95.439","RCS_SIZE":"LARGE","SITE":"AFETR","EPOCH":"2022-11-28T05:50:14.663328","ECCENTRICITY":"0.00028330","RA_OF_ASC_NODE":"274.6752","APOAPSIS":"541.775"},{"SEMIMAJOR_AXIS":"6917.900","BSTAR":"-0.00009939700000","OBJECT_ID":"2022-005AG","INCLINATION":"53.2185","PERIAPSIS":"536.721","REV_AT_EPOCH":"4919","NORAD_CAT_ID":"51134","TLE_LINE1":"1 51134U 22005AG  22332.07950887 -.00001871  00000-0 -99397-4 0  9999","REF_FRAME":"TEME","TLE_LINE2":"2 51134  53.2185 265.3955 0004400  32.4836 327.6426 15.08833698 49193","OBJECT_TYPE":"PAYLOAD","LAUNCH_DATE":"2022-01-19","EPHEMERIS_TYPE":"0","MEAN_MOTION_DOT":"-0.00001871","MEAN_ELEMENT_THEORY":"SGP4","MEAN_ANOMALY":"327.6426","ARG_OF_PERICENTER":"32.4836","FILE":"3672063","CLASSIFICATION_TYPE":"U","PERIOD":"95.438","TIME_SYSTEM":"UTC","RCS_SIZE":"LARGE","EPOCH":"2022-11-28T01:54:29.566368","SITE":"AFETR","APOAPSIS":"542.809","RA_OF_ASC_NODE":"265.3955","ECCENTRICITY":"0.00044000","GP_ID":"218997833","MEAN_MOTION_DDOT":"0.0000000000000","CENTER_NAME":"EARTH","DECAY_DATE":null,"MEAN_MOTION":"15.08833698","ELEMENT_SET_NO":"999","COUNTRY_CODE":"US","OBJECT_NAME":"STARLINK-3183"},{"TLE_LINE1":"1 51135U 22005AH  22332.57074145 -.00000593  00000-0 -19109-4 0  9992","NORAD_CAT_ID":"51135","PERIAPSIS":"537.632","INCLINATION":"53.2158","REV_AT_EPOCH":"4912","OBJECT_ID":"2022-005AH","BSTAR":"-0.00001910900000","SEMIMAJOR_AXIS":"6917.893","EPHEMERIS_TYPE":"0","LAUNCH_DATE":"2022-01-19","OBJECT_TYPE":"PAYLOAD","TLE_LINE2":"2 51135  53.2158 273.2081 0003073  31.9192 328.1986 15.08835889 49120","REF_FRAME":"TEME","CLASSIFICATION_TYPE":"U","FILE":"3672601","ARG_OF_PERICENTER":"31.9192","MEAN_ELEMENT_THEORY":"SGP4","MEAN_ANOMALY":"328.1986","MEAN_MOTION_DOT":"-0.00000593","ECCENTRICITY":"0.00030730","APOAPSIS":"541.884","RA_OF_ASC_NODE":"273.2081","SITE":"AFETR","EPOCH":"2022-11-28T13:41:52.061280","RCS_SIZE":"LARGE","TIME_SYSTEM":"UTC","PERIOD":"95.438","CENTER_NAME":"EARTH","GP_ID":"219008613","MEAN_MOTION_DDOT":"0.0000000000000","ELEMENT_SET_NO":"999","MEAN_MOTION":"15.08835889","DECAY_DATE":null,"OBJECT_NAME":"STARLINK-3363","COUNTRY_CODE":"US"},{"SEMIMAJOR_AXIS":"6917.870","BSTAR":"-0.00009003900000","OBJECT_ID":"2022-005AJ","INCLINATION":"53.2182","PERIAPSIS":"537.349","REV_AT_EPOCH":"4913","NORAD_CAT_ID":"51136","TLE_LINE1":"1 51136U 22005AJ  22332.57169828 -.00001722  00000-0 -90039-4 0  9992","TLE_LINE2":"2 51136  53.2182 273.2031 0003449  30.7639 329.3555 15.08843545 49137","REF_FRAME":"TEME","OBJECT_TYPE":"PAYLOAD","LAUNCH_DATE":"2022-01-19","EPHEMERIS_TYPE":"0","MEAN_MOTION_DOT":"-0.00001722","MEAN_ELEMENT_THEORY":"SGP4","MEAN_ANOMALY":"329.3555","ARG_OF_PERICENTER":"30.7639","FILE":"3672601","CLASSIFICATION_TYPE":"U","TIME_SYSTEM":"UTC","PERIOD":"95.437","RCS_SIZE":"LARGE","EPOCH":"2022-11-28T13:43:14.731392","SITE":"AFETR","RA_OF_ASC_NODE":"273.2031","APOAPSIS":"542.121","ECCENTRICITY":"0.00034490","MEAN_MOTION_DDOT":"0.0000000000000","GP_ID":"219008612","CENTER_NAME":"EARTH","DECAY_DATE":null,"MEAN_MOTION":"15.08843545","ELEMENT_SET_NO":"999","COUNTRY_CODE":"US","OBJECT_NAME":"STARLINK-3253"},{"OBJECT_TYPE":"PAYLOAD","EPHEMERIS_TYPE":"0","LAUNCH_DATE":"2022-01-19","TLE_LINE2":"2 51137  53.2183 273.2629 0002995  34.4763 325.6423 15.08859796 49123","REF_FRAME":"TEME","PERIAPSIS":"537.613","REV_AT_EPOCH":"4912","INCLINATION":"53.2183","TLE_LINE1":"1 51137U 22005AK  22332.55968695 -.00002505  00000-0 -13920-3 0  9993","NORAD_CAT_ID":"51137","SEMIMAJOR_AXIS":"6917.820","OBJECT_ID":"2022-005AK","BSTAR":"-0.00013920000000","FILE":"3672601","ARG_OF_PERICENTER":"34.4763","CLASSIFICATION_TYPE":"U","MEAN_ANOMALY":"325.6423","MEAN_ELEMENT_THEORY":"SGP4","MEAN_MOTION_DOT":"-0.00002505","MEAN_MOTION_DDOT":"0.0000000000000","GP_ID":"219008308","CENTER_NAME":"EARTH","SITE":"AFETR","EPOCH":"2022-11-28T13:25:56.952480","ECCENTRICITY":"0.00029950","RA_OF_ASC_NODE":"273.2629","APOAPSIS":"541.757","TIME_SYSTEM":"UTC","PERIOD":"95.436","RCS_SIZE":"LARGE","OBJECT_NAME":"STARLINK-3180","COUNTRY_CODE":"US","ELEMENT_SET_NO":"999","MEAN_MOTION":"15.08859796","DECAY_DATE":null}];
